STARLINK-6032           
1 57371C 23099AV  26105.73798611  .00025648  00000+0  95283-3 0  1055
2 57371  43.0002  32.0570 0001575 248.5973 335.7978 15.26732062    14
STARLINK-5975           
1 57372C 23099AW  26105.74493056  .00625320  00000+0  23377-1 0  1058
2 57372  43.0005  32.4684 0001513 257.6825 169.8052 15.26227789    11
STARLINK-6370           
1 57373C 23099AX  26105.80118056  .00018907  00000+0  70258-3 0  1059
2 57373  43.0012  32.2836 0001904 264.4991  59.4962 15.26726696    16
STARLINK-6369           
1 57374C 23099AY  26105.80812500 -.00007456  00000+0 -27000-3 0  1051
2 57374  43.0044  14.1296 0001618 260.1888 104.9942 15.27586006    15
STARLINK-6363           
1 57375C 23099AZ  26105.80187500  .00603250  00000+0  23096-1 0  1058
2 57375  43.0007  32.1879 0001337 252.8055 115.3292 15.25451155    12
STARLINK-6367           
1 57376C 23099BA  26105.75604167  .00037480  00000+0  13920-2 0  1058
2 57376  43.0027  28.5827 0001398 256.5083  51.4018 15.26736834    13
STARLINK-6358           
1 57377C 23099BB  26105.80326389  .00021104  00000+0  95722-3 0  1059
2 57377  43.0023  32.1690 0001158 251.2763 128.6645 15.20026393    19
STARLINK-6364           
1 57378C 23099BC  26105.79770833 -.00017158  00000+0 -63755-3 0  1052
2 57378  43.0023   2.6577 0001181 254.8861 150.8193 15.26747428    10
STARLINK-6361           
1 57379C 23099BD  26105.80256944  .00005704  00000+0  21189-3 0  1054
2 57379  43.0051  28.4115 0001248 262.1729 264.8987 15.26746806    11
STARLINK-6366           
1 57380C 23099BE  26105.80048611 -.00017770  00000+0 -66020-3 0  1057
2 57380  43.0009   2.7643 0001272 258.9777 105.4871 15.26751401    19
STARLINK-6371           
1 57381C 23099BF  26105.79284722 -.00000404  00000+0 -14992-4 0  1059
2 57381  43.0036  14.1139 0001359 265.3591  54.9135 15.26753138    19
STARLINK-30240          
1 57404C 23102A   26105.77270833  .00037274  00000+0  13505-2 0  1056
2 57404  43.0030  39.1764 0001268 251.1354  14.7821 15.27549856    16
STARLINK-30195          
1 57406C 23102C   26105.81159722  .00021940  00000+0  12814-2 0  1051
2 57406  43.0019  44.0314 0000985 249.3014 249.1181 15.11140198    10
STARLINK-30207          
1 57407C 23102D   26105.78243056  .00024438  00000+0  88539-3 0  1055
2 57407  43.0017  24.5814 0001388 260.0347  21.1783 15.27556520    17
STARLINK-30205          
1 57408C 23102E   26105.74423611  .00041816  00000+0  15152-2 0  1058
2 57408  43.0041  39.6257 0001717 258.9578  89.9381 15.27542323    13
STARLINK-30222          
1 57409C 23102F   26105.76854167  .00040235  00000+0  14949-2 0  1052
2 57409  43.0018  38.9419 0001049 264.4960  86.0360 15.26720807    14
STARLINK-30172          
1 57410C 23102G   26105.80534722  .00026229  00000+0  97427-3 0  1051
2 57410  43.0015  39.5072 0001393 263.0314 320.0565 15.26736926    12
STARLINK-30214          
1 57411C 23102H   26105.81437500  .00017898  00000+0  66488-3 0  1054
2 57411  43.0017  38.7830 0001286 253.3920 308.7502 15.26737556    18
STARLINK-30182          
1 57412C 23102J   26105.78590278  .00036163  00000+0  13438-2 0  1055
2 57412  43.0019  39.0338 0001151 250.4635 114.6028 15.26718517    13
STARLINK-30191          
1 57413C 23102K   26105.79770833 -.00035243  00000+0 -12766-2 0  1057
2 57413  43.0016 337.0840 0001317 260.2319  72.7769 15.27593503    15
STARLINK-30193          
1 57414C 23102L   26105.79215278  .00149580  00000+0  52473-2 0  1052
2 57414  43.0015  41.0420 0001856 271.5582 344.4540 15.28548111    18
STARLINK-30208          
1 57415C 23102M   26105.76993056  .00040078  00000+0  14889-2 0  1058
2 57415  43.0017  38.9407 0001289 262.9107  91.2327 15.26725120    13
STARLINK-30224          
1 57416C 23102N   26105.73729167  .00040366  00000+0  14622-2 0  1051
2 57416  43.0030  39.3894 0001380 265.4512 158.3793 15.27554787    16
STARLINK-30043          
1 57417C 23102P   26105.78173611  .00037868  00000+0  14068-2 0  1051
2 57417  43.0020  39.0274 0000990 253.4414  98.7323 15.26727030    17
STARLINK-30221          
1 57418C 23102Q   26105.68520833  .00050097  00000+0  29290-2 0  1055
2 57418  43.0024  44.7264 0001213 243.6716 283.4293 15.11088300    12
STARLINK-30189          
1 57430C 23105A   26105.78798611  .00612870  00000+0  19050-2 0  1050
2 57430  42.9993  14.7567 0002095 265.4232 245.4217 15.90294270    12
STARLINK-30188          
1 57432C 23105C   26105.73520833  .00029200  00000+0  11125-2 0  1050
2 57432  43.0052  54.0989 0001294 264.4987 211.0788 15.25896537    17
STARLINK-30105          
1 57433C 23105D   26105.76020833  .00019716  00000+0  71407-3 0  1050
2 57433  43.0006 181.4780 0001680 275.2971 131.6644 15.27570729    15
STARLINK-30102          
1 57434C 23105E   26105.74145833  .00030555  00000+0  11071-2 0  1051
2 57434  43.0040  50.6511 0001485 267.4135 242.9721 15.27551590    18
STARLINK-30237          
1 57437C 23105H   26105.79145833  .00154360  00000+0  59429-3 0  1050
2 57437  42.9903   9.3685 0022124 231.9188 334.9482 15.85837666    18
STARLINK-30158          
1 57438C 23105J   26105.75326389  .00031646  00000+0  11465-2 0  1052
2 57438  43.0034  50.6153 0001866 258.5642 302.6832 15.27553550    19
STARLINK-30160          
1 57441C 23105M   26105.74284722  .00487340  00000+0  20023-1 0  1054
2 57441  43.0002  57.2661 0001365 279.2076 320.8198 15.23151833    11
STARLINK-30146          
1 57442C 23105N   26105.81229167  .00028066  00000+0  10167-2 0  1050
2 57442  43.0028  50.3309 0001499 255.6029 249.4074 15.27559376    14
STARLINK-30197          
1 57443C 23105P   26105.80812500  .00033293  00000+0  12059-2 0  1059
2 57443  43.0045  50.0899 0001101 261.1072 334.1348 15.27560836    14
STARLINK-30181          
1 57444C 23105Q   26105.81993056  .00034821  00000+0  12613-2 0  1051
2 57444  43.0015  53.4852 0001349 264.9066   9.7430 15.27559197    11
STARLINK-30215          
1 57445C 23105R   26105.75187500  .00030963  00000+0  11216-2 0  1055
2 57445  43.0020  50.7709 0001285 259.5449 230.3565 15.27559244    17
STARLINK-30162          
1 57446C 23105S   26105.74493056  .00033848  00000+0  12260-2 0  1056
2 57446  43.0015  39.5213 0001367 266.0375 291.4419 15.27560119    18
STARLINK-30178          
1 57447C 23105T   26105.76020833  .00030467  00000+0  11034-2 0  1050
2 57447  43.0022  50.6742 0001450 261.6162 295.3921 15.27565573    16
STARLINK-30196          
1 57448C 23105U   26105.78937500  .00031641  00000+0  11763-2 0  1055
2 57448  43.0012  53.4287 0001461 258.6637 303.0013 15.26705363    17
STARLINK-30225          
1 57449C 23105V   26105.72618056  .00010573  00000+0  38310-3 0  1051
2 57449  43.0012  53.9585 0001451 257.8054 241.9396 15.27559717    12
STARLINK-30217          
1 57450C 23105W   26105.78451389  .00034469  00000+0  12487-2 0  1059
2 57450  43.0014  39.3806 0001325 256.0264 145.2046 15.27556388    13
STARLINK-30216          
1 57451C 23105X   26105.72340278  .00032138  00000+0  11642-2 0  1051
2 57451  43.0011  50.2726 0001287 263.9843 352.1369 15.27556669    10
STARLINK-30165          
1 57457C 23107A   26105.78590278 -.00038334  00000+0 -13886-2 0  1050
2 57457  42.9998 126.7977 0001409 258.5402 266.5453 15.27594307    15
STARLINK-30140          
1 57458C 23107B   26105.75048611 -.00033106  00000+0 -11992-2 0  1055
2 57458  43.0019 130.0983 0001671 273.2932 186.8810 15.27591817    14
STARLINK-30077          
1 57460C 23107D   26105.78798611 -.00027766  00000+0 -10058-2 0  1050
2 57460  43.0041 126.2315 0001877 272.7974 137.2367 15.27586234    10
STARLINK-30229          
1 57461C 23107E   26105.67479167  .00778610  00000+0  37313-1 0  1052
2 57461  43.0002 134.3355 0001721 286.7259 311.1931 15.17754335    19
STARLINK-30088          
1 57462C 23107F   26105.79006944 -.00049472  00000+0 -17919-2 0  1055
2 57462  43.0011 126.8399 0001464 265.7003 254.0483 15.27602832    14
STARLINK-30091          
1 57463C 23107G   26105.77340278 -.00038827  00000+0 -14065-2 0  1056
2 57463  43.0036 126.4114 0001663 270.4861  16.8205 15.27593487    10
STARLINK-30116          
1 57465C 23107J   26105.76229167 -.00010656  00000+0 -38618-3 0  1051
2 57465  43.0007 126.8583 0001166 256.3027 167.0115 15.27567081    19
STARLINK-30092          
1 57467C 23107L   26105.80743056 -.00054250  00000+0 -19653-2 0  1051
2 57467  43.0006 126.6521 0001472 265.2085  25.5043 15.27599718    13
STARLINK-30039          
1 57468C 23107M   26105.75395833 -.00038433  00000+0 -13917-2 0  1054
2 57468  43.0003 127.0066 0001517 258.0702  76.8832 15.27606138    16
STARLINK-30171          
1 57469C 23107N   26105.80951389 -.00065913  00000+0 -23878-2 0  1055
2 57469  43.0013 129.8123 0001697 265.4558 138.4739 15.27604876    10
STARLINK-30186          
1 57470C 23107P   26105.79423611  .00151720  00000+0  78405-2 0  1053
2 57470  42.9996 132.9154 0000485 266.7472 221.5578 15.15432366    17
STARLINK-30204          
1 57472C 23107R   26105.74979167 -.00033959  00000+0 -12299-2 0  1056
2 57472  43.0015 126.7906 0001412 268.8741 142.2997 15.27597412    13
STARLINK-30155          
1 57475C 23107U   26105.78590278 -.00059466  00000+0 -21540-2 0  1055
2 57475  43.0038 126.2529 0001673 268.1706 123.3271 15.27604964    16
STARLINK-30161          
1 57476C 23107V   26105.74423611 -.00034455  00000+0 -12487-2 0  1059
2 57476  43.0034 126.5378 0001799 275.1284 225.7742 15.27576123    11
STARLINK-30176          
1 57477C 23107W   26105.74215278 -.00251600  00000+0 -90961-2 0  1054
2 57477  43.0028 126.5989 0001654 253.6740 214.5279 15.27763610    11
STARLINK-30154          
1 57495C 23113A   26105.81993056 -.00026137  00000+0 -94679-3 0  1052
2 57495  43.0020 166.1977 0001571 265.9542 170.7660 15.27587083    19
STARLINK-30145          
1 57496C 23113B   26105.79423611 -.00056732  00000+0 -20545-2 0  1059
2 57496  43.0031 166.5369 0001740 272.4562 304.9829 15.27610704    19
